start=new Date('2022-08-30T00:00:00.000Z').valueOf();
sats=[{"PERIOD":"95.593","COUNTRY_CODE":"US","TIME_SYSTEM":"UTC","CLASSIFICATION_TYPE":"U","APOAPSIS":"548.215","LAUNCH_DATE":"2021-03-11","RA_OF_ASC_NODE":"255.2332","EPOCH":"2022-08-29T08:17:07.821024","MEAN_MOTION_DDOT":"0.0000000000000","OBJECT_TYPE":"PAYLOAD","NORAD_CAT_ID":"47798","SEMIMAJOR_AXIS":"6925.395","PERIAPSIS":"546.305","BSTAR":"-0.00003651100000","REV_AT_EPOCH":"8269","MEAN_MOTION_DOT":"-0.00000825","OBJECT_ID":"2021-018M","ECCENTRICITY":"0.00013790","GP_ID":"211253741","TLE_LINE2":"2 47798  53.0540 255.2332 0001379  72.3350 287.7790 15.06384917 82695","MEAN_ANOMALY":"287.7790","ARG_OF_PERICENTER":"72.3350","OBJECT_NAME":"STARLINK-2379","RCS_SIZE":"LARGE","INCLINATION":"53.0540","FILE":"3550737","SITE":"AFETR","TLE_LINE1":"1 47798U 21018M   22241.34522941 -.00000825  00000-0 -36511-4 0  9995","MEAN_MOTION":"15.06384917","DECAY_DATE":null,"EPHEMERIS_TYPE":"0","CENTER_NAME":"EARTH","ELEMENT_SET_NO":"999","MEAN_ELEMENT_THEORY":"SGP4","REF_FRAME":"TEME"},{"ECCENTRICITY":"0.00011440","GP_ID":"211253949","TLE_LINE2":"2 47799  53.0533 255.2334 0001144  79.3114 280.8004 15.06392207 82687","OBJECT_NAME":"STARLINK-2380","MEAN_ANOMALY":"280.8004","ARG_OF_PERICENTER":"79.3114","RCS_SIZE":"LARGE","INCLINATION":"53.0533","FILE":"3550737","SITE":"AFETR","DECAY_DATE":null,"MEAN_MOTION":"15.06392207","TLE_LINE1":"1 47799U 21018N   22241.34154744 -.00000319  00000-0 -25163-5 0  9998","CENTER_NAME":"EARTH","EPHEMERIS_TYPE":"0","REF_FRAME":"TEME","MEAN_ELEMENT_THEORY":"SGP4","ELEMENT_SET_NO":"999","PERIOD":"95.593","COUNTRY_CODE":"US","TIME_SYSTEM":"UTC","CLASSIFICATION_TYPE":"U","APOAPSIS":"548.030","RA_OF_ASC_NODE":"255.2334","LAUNCH_DATE":"2021-03-11","EPOCH":"2022-08-29T08:11:49.698816","MEAN_MOTION_DDOT":"0.0000000000000","NORAD_CAT_ID":"47799","OBJECT_TYPE":"PAYLOAD","PERIAPSIS":"546.445","SEMIMAJOR_AXIS":"6925.372","MEAN_MOTION_DOT":"-0.00000319","BSTAR":"-0.00000251630000","REV_AT_EPOCH":"8268","OBJECT_ID":"2021-018N"},{"CLASSIFICATION_TYPE":"U","APOAPSIS":"548.254","COUNTRY_CODE":"US","PERIOD":"95.592","TIME_SYSTEM":"UTC","MEAN_MOTION_DOT":"-0.00000172","BSTAR":"0.00000734090000","REV_AT_EPOCH":"8269","PERIAPSIS":"546.164","SEMIMAJOR_AXIS":"6925.344","OBJECT_ID":"2021-018P","MEAN_MOTION_DDOT":"0.0000000000000","LAUNCH_DATE":"2021-03-11","RA_OF_ASC_NODE":"255.1469","EPOCH":"2022-08-29T08:43:39.589824","OBJECT_TYPE":"PAYLOAD","NORAD_CAT_ID":"47800","OBJECT_NAME":"STARLINK-2381","ARG_OF_PERICENTER":"68.4894","MEAN_ANOMALY":"291.6256","RCS_SIZE":"LARGE","TLE_LINE2":"2 47800  53.0542 255.1469 0001509  68.4894 291.6256 15.06401397 82698","GP_ID":"211252740","ECCENTRICITY":"0.00015090","MEAN_MOTION":"15.06401397","DECAY_DATE":null,"TLE_LINE1":"1 47800U 21018P   22241.36365266 -.00000172  00000-0  73409-5 0  9998","SITE":"AFETR","REF_FRAME":"TEME","MEAN_ELEMENT_THEORY":"SGP4","ELEMENT_SET_NO":"999","EPHEMERIS_TYPE":"0","CENTER_NAME":"EARTH","FILE":"3550737","INCLINATION":"53.0542"},{"RA_OF_ASC_NODE":"259.7660","LAUNCH_DATE":"2021-03-11","EPOCH":"2022-08-29T11:08:59.328384","MEAN_MOTION_DDOT":"0.0000000000000","NORAD_CAT_ID":"47801","OBJECT_TYPE":"PAYLOAD","SEMIMAJOR_AXIS":"6925.357","PERIAPSIS":"546.246","BSTAR":"0.00009506300000","REV_AT_EPOCH":"8264","MEAN_MOTION_DOT":"0.00001135","OBJECT_ID":"2021-018Q","PERIOD":"95.592","COUNTRY_CODE":"US","TIME_SYSTEM":"UTC","CLASSIFICATION_TYPE":"U","APOAPSIS":"548.198","INCLINATION":"53.0549","FILE":"3550737","SITE":"AFETR","TLE_LINE1":"1 47801U 21018Q   22241.46457556  .00001135  00000-0  95063-4 0  9992","MEAN_MOTION":"15.06397239","DECAY_DATE":null,"EPHEMERIS_TYPE":"0","CENTER_NAME":"EARTH","ELEMENT_SET_NO":"999","MEAN_ELEMENT_THEORY":"SGP4","REF_FRAME":"TEME","ECCENTRICITY":"0.00014090","GP_ID":"211252990","TLE_LINE2":"2 47801  53.0549 259.7660 0001409  72.4687 287.6456 15.06397239 82644","ARG_OF_PERICENTER":"72.4687","MEAN_ANOMALY":"287.6456","OBJECT_NAME":"STARLINK-2382","RCS_SIZE":"LARGE"},{"OBJECT_NAME":"STARLINK-2383","MEAN_ANOMALY":"276.8972","ARG_OF_PERICENTER":"83.2178","RCS_SIZE":"LARGE","TLE_LINE2":"2 47802  53.0552 277.9854 0001417  83.2178 276.8972 15.06400287 82427","ECCENTRICITY":"0.00014170","GP_ID":"211285573","MEAN_MOTION":"15.06400287","DECAY_DATE":null,"TLE_LINE1":"1 47802U 21018R   22241.84236409  .00000025  00000-0  20599-4 0  9996","SITE":"AFETR","REF_FRAME":"TEME","MEAN_ELEMENT_THEORY":"SGP4","ELEMENT_SET_NO":"999","EPHEMERIS_TYPE":"0","CENTER_NAME":"EARTH","FILE":"3551093","INCLINATION":"53.0552","CLASSIFICATION_TYPE":"U","APOAPSIS":"548.194","COUNTRY_CODE":"US","PERIOD":"95.592","TIME_SYSTEM":"UTC","MEAN_MOTION_DOT":"0.00000025","REV_AT_EPOCH":"8242","BSTAR":"0.00002059900000","PERIAPSIS":"546.231","SEMIMAJOR_AXIS":"6925.348","OBJECT_ID":"2021-018R","MEAN_MOTION_DDOT":"0.0000000000000","EPOCH":"2022-08-29T20:13:00.257376","LAUNCH_DATE":"2021-03-11","RA_OF_ASC_NODE":"277.9854","NORAD_CAT_ID":"47802","OBJECT_TYPE":"PAYLOAD"},{"RA_OF_ASC_NODE":"254.8039","LAUNCH_DATE":"2021-03-11","EPOCH":"2022-08-29T10:35:07.365408","MEAN_MOTION_DDOT":"0.0000000000000","NORAD_CAT_ID":"47803","OBJECT_TYPE":"PAYLOAD","SEMIMAJOR_AXIS":"6925.344","PERIAPSIS":"546.299","REV_AT_EPOCH":"8270","BSTAR":"0.00001688600000","MEAN_MOTION_DOT":"-0.00000030","OBJECT_ID":"2021-018S","PERIOD":"95.592","COUNTRY_CODE":"US","TIME_SYSTEM":"UTC","CLASSIFICATION_TYPE":"U","APOAPSIS":"548.120","INCLINATION":"53.0534","FILE":"3550737","SITE":"AFETR","TLE_LINE1":"1 47803U 21018S   22241.44105747 -.00000030  00000-0  16886-4 0  9994","DECAY_DATE":null,"MEAN_MOTION":"15.06401351","EPHEMERIS_TYPE":"0","CENTER_NAME":"EARTH","ELEMENT_SET_NO":"999","MEAN_ELEMENT_THEORY":"SGP4","REF_FRAME":"TEME","GP_ID":"211254450","ECCENTRICITY":"0.00013150","TLE_LINE2":"2 47803  53.0534 254.8039 0001315  76.7356 283.3779 15.06401351 82701","MEAN_ANOMALY":"283.3779","ARG_OF_PERICENTER":"76.7356","OBJECT_NAME":"STARLINK-2384","RCS_SIZE":"LARGE"},{"TLE_LINE2":"2 47804  53.0544 255.3318 0001369  67.9134 292.2000 15.06402833 82683","ECCENTRICITY":"0.00013690","GP_ID":"211253241","RCS_SIZE":"LARGE","ARG_OF_PERICENTER":"67.9134","MEAN_ANOMALY":"292.2000","OBJECT_NAME":"STARLINK-2385","FILE":"3550737","INCLINATION":"53.0544","ELEMENT_SET_NO":"999","MEAN_ELEMENT_THEORY":"SGP4","REF_FRAME":"TEME","CENTER_NAME":"EARTH","EPHEMERIS_TYPE":"0","TLE_LINE1":"1 47804U 21018T   22241.32311627  .00001373  00000-0  11106-3 0  9997","MEAN_MOTION":"15.06402833","DECAY_DATE":null,"SITE":"AFETR","TIME_SYSTEM":"UTC","COUNTRY_CODE":"US","PERIOD":"95.592","APOAPSIS":"548.153","CLASSIFICATION_TYPE":"U","OBJECT_TYPE":"PAYLOAD","NORAD_CAT_ID":"47804","MEAN_MOTION_DDOT":"0.0000000000000","LAUNCH_DATE":"2021-03-11","EPOCH":"2022-08-29T07:45:17.245728","RA_OF_ASC_NODE":"255.3318","OBJECT_ID":"2021-018T","REV_AT_EPOCH":"8268","BSTAR":"0.00011106000000","MEAN_MOTION_DOT":"0.00001373","SEMIMAJOR_AXIS":"6925.340","PERIAPSIS":"546.257"},{"CLASSIFICATION_TYPE":"U","APOAPSIS":"548.103","PERIOD":"95.593","COUNTRY_CODE":"US","TIME_SYSTEM":"UTC","PERIAPSIS":"546.366","SEMIMAJOR_AXIS":"6925.370","MEAN_MOTION_DOT":"-0.00000186","REV_AT_EPOCH":"8275","BSTAR":"0.00000639840000","OBJECT_ID":"2021-018U","LAUNCH_DATE":"2021-03-11","RA_OF_ASC_NODE":"253.6351","EPOCH":"2022-08-29T18:06:20.021760","MEAN_MOTION_DDOT":"0.0000000000000","NORAD_CAT_ID":"47805","OBJECT_TYPE":"PAYLOAD","OBJECT_NAME":"STARLINK-2386","ARG_OF_PERICENTER":"79.7838","MEAN_ANOMALY":"280.3293","RCS_SIZE":"LARGE","ECCENTRICITY":"0.00012540","GP_ID":"211285323","TLE_LINE2":"2 47805  53.0540 253.6351 0001254  79.7838 280.3293 15.06393045 82757","SITE":"AFETR","MEAN_MOTION":"15.06393045","DECAY_DATE":null,"TLE_LINE1":"1 47805U 21018U   22241.75439840 -.00000186  00000-0  63984-5 0  9998","EPHEMERIS_TYPE":"0","CENTER_NAME":"EARTH","MEAN_ELEMENT_THEORY":"SGP4","REF_FRAME":"TEME","ELEMENT_SET_NO":"999","INCLINATION":"53.0540","FILE":"3551093"},{"TLE_LINE2":"2 47806  53.0544 270.1667 0001444  67.5949 292.5192 15.06397430 82547","ECCENTRICITY":"0.00014440","GP_ID":"211253742","MEAN_ANOMALY":"292.5192","ARG_OF_PERICENTER":"67.5949","OBJECT_NAME":"STARLINK-2387","RCS_SIZE":"LARGE","FILE":"3550737","INCLINATION":"53.0544","TLE_LINE1":"1 47806U 21018V   22241.36043082 -.00000198  00000-0  55931-5 0  9991","DECAY_DATE":null,"MEAN_MOTION":"15.06397430","SITE":"AFETR","ELEMENT_SET_NO":"999","MEAN_ELEMENT_THEORY":"SGP4","REF_FRAME":"TEME","CENTER_NAME":"EARTH","EPHEMERIS_TYPE":"0","COUNTRY_CODE":"US","PERIOD":"95.592","TIME_SYSTEM":"UTC","CLASSIFICATION_TYPE":"U","APOAPSIS":"548.221","MEAN_MOTION_DDOT":"0.0000000000000","EPOCH":"2022-08-29T08:39:01.222848","LAUNCH_DATE":"2021-03-11","RA_OF_ASC_NODE":"270.1667","NORAD_CAT_ID":"47806","OBJECT_TYPE":"PAYLOAD","REV_AT_EPOCH":"8254","BSTAR":"0.00000559310000","MEAN_MOTION_DOT":"-0.00000198","SEMIMAJOR_AXIS":"6925.356","PERIAPSIS":"546.221","OBJECT_ID":"2021-018V"},{"MEAN_ANOMALY":"289.8262","ARG_OF_PERICENTER":"70.2876","OBJECT_NAME":"STARLINK-2388","RCS_SIZE":"LARGE","GP_ID":"211253950","ECCENTRICITY":"0.00013890","TLE_LINE2":"2 47807  53.0542 245.5100 0001389  70.2876 289.8262 15.06405354 82814","SITE":"AFETR","TLE_LINE1":"1 47807U 21018W   22241.28348588  .00001518  00000-0  12078-3 0  9991","MEAN_MOTION":"15.06405354","DECAY_DATE":null,"CENTER_NAME":"EARTH","EPHEMERIS_TYPE":"0","ELEMENT_SET_NO":"999","MEAN_ELEMENT_THEORY":"SGP4","REF_FRAME":"TEME","INCLINATION":"53.0542","FILE":"3550737","CLASSIFICATION_TYPE":"U","APOAPSIS":"548.159","PERIOD":"95.592","COUNTRY_CODE":"US","TIME_SYSTEM":"UTC","SEMIMAJOR_AXIS":"6925.332","PERIAPSIS":"546.235","REV_AT_EPOCH":"8281","BSTAR":"0.00012078000000","MEAN_MOTION_DOT":"0.00001518","OBJECT_ID":"2021-018W","LAUNCH_DATE":"2021-03-11","EPOCH":"2022-08-29T06:48:13.180032","RA_OF_ASC_NODE":"245.5100","MEAN_MOTION_DDOT":"0.0000000000000","NORAD_CAT_ID":"47807","OBJECT_TYPE":"PAYLOAD"}];
